0 COSMOS 535
1 06270U 72087H   13281.70827175 -.00000015  00000-0  10282-4 0  8679
2 06270 074.0380 036.8549 0055041 273.0595 192.2608 12.59277918881983
0 COSMOS 535
1 06270U 72087H   13283.77263072 -.00000029  00000-0 -70856-4 0  8688
2 06270 074.0384 034.0649 0055073 269.9353 190.7918 12.59278118882249
0 COSMOS 535
1 06270U 72087H   13285.77356667 -.00000019  00000-0 -14183-4 0  8694
2 06270 074.0386 031.3606 0055039 266.9079 261.8028 12.59278011882499
0 COSMOS 535
1 06270U 72087H   13287.82521102  .00000002  00000-0  10897-3 0  8709
2 06270 074.0388 028.5880 0055027 263.7976 202.7004 12.59277816882750
0 COSMOS 535
1 06270U 72087H   13290.51648697  .00000011  00000-0  15859-3 0  8712
2 06270 074.0385 024.9511 0055084 259.7523 163.2584 12.59277681883096
0 COSMOS 535
1 06270U 72087H   13292.83161167  .00000002  00000-0  10736-3 0  8721
2 06270 074.0382 021.8224 0055075 256.2615 218.5921 12.59277977883383
0 COSMOS 535
1 06270U 72087H   13295.19242404 -.00000023  00000-0 -38778-4 0  8730
2 06270 074.0382 018.6319 0055054 252.6930 121.0554 12.59278193883683
